[{"OBJECT_NAME":"IRIDIUM 165","OBJECT_ID":"2018-061D","EPOCH":"2026-03-09T12:28:22.404000","MEAN_MOTION":14.34217296,"ECCENTRICITY":0.00020877,"INCLINATION":86.3917,"RA_OF_ASC_NODE":98.4934,"ARG_OF_PERICENTER":96.9181,"MEAN_ANOMALY":263.2252,"EPHEMERIS_TYPE":0,"CLASSIFICATION_TYPE":"U","NORAD_CAT_ID":43572,"ELEMENT_SET_NO":999,"REV_AT_EPOCH":39910,"BSTAR":7.29473e-7,"MEAN_MOTION_DOT":2.2e-7,"MEAN_MOTION_DDOT":0},{"OBJECT_NAME":"COSMOS 1867 COOLANT","OBJECT_ID":"1987-060J","EPOCH":"2026-03-09T01:32:56.078880","MEAN_MOTION":14.33680441,"ECCENTRICITY":0.00143106,"INCLINATION":65.0057,"RA_OF_ASC_NODE":293.3516,"ARG_OF_PERICENTER":281.9486,"MEAN_ANOMALY":77.9995,"EPHEMERIS_TYPE":0,"CLASSIFICATION_TYPE":"U","NORAD_CAT_ID":39641,"ELEMENT_SET_NO":999,"REV_AT_EPOCH":62213,"BSTAR":0.00015620742,"MEAN_MOTION_DOT":3.34e-6,"MEAN_MOTION_DDOT":0}]
